start=new Date('2022-03-31T00:00:00.000Z').valueOf();
sats=[{"GP_ID":"200100539","MEAN_MOTION_DDOT":"0.0000000000000","EPOCH":"2022-03-30T22:00:00.999936","INCLINATION":"53.2163","REF_FRAME":"TEME","NORAD_CAT_ID":"52101","ELEMENT_SET_NO":"999","REV_AT_EPOCH":"259","SITE":"AFETR","TLE_LINE1":"1 52101U 22029P   22089.91667824 -.00017861  00000-0 -12300-3 0  9992","LAUNCH_DATE":"2022-03-19","PERIOD":"91.532","SEMIMAJOR_AXIS":"6727.831","OBJECT_ID":"2022-029P","MEAN_MOTION_DOT":"-0.00017861","FILE":"3380787","PERIAPSIS":"349.028","DECAY_DATE":null,"BSTAR":"-0.00012300000000","MEAN_ANOMALY":"35.0789","COUNTRY_CODE":"US","TIME_SYSTEM":"UTC","ECCENTRICITY":"0.00009930","CLASSIFICATION_TYPE":"U","ARG_OF_PERICENTER":"73.2780","MEAN_MOTION":"15.73222415","CENTER_NAME":"EARTH","RCS_SIZE":"LARGE","EPHEMERIS_TYPE":"0","TLE_LINE2":"2 52101  53.2163  86.0734 0000993  73.2780  35.0789 15.73222415  2597","OBJECT_NAME":"STARLINK-3703","MEAN_ELEMENT_THEORY":"SGP4","OBJECT_TYPE":"PAYLOAD","APOAPSIS":"350.364","RA_OF_ASC_NODE":"86.0734"},{"MEAN_MOTION_DOT":"-0.00018940","OBJECT_ID":"2022-029Q","SEMIMAJOR_AXIS":"6727.837","BSTAR":"-0.00013072000000","DECAY_DATE":null,"PERIAPSIS":"349.007","FILE":"3380787","TLE_LINE1":"1 52102U 22029Q   22089.91667824 -.00018940  00000-0 -13072-3 0  9999","REV_AT_EPOCH":"263","SITE":"AFETR","ELEMENT_SET_NO":"999","PERIOD":"91.532","LAUNCH_DATE":"2022-03-19","REF_FRAME":"TEME","INCLINATION":"53.2163","MEAN_MOTION_DDOT":"0.0000000000000","EPOCH":"2022-03-30T22:00:00.999936","NORAD_CAT_ID":"52102","GP_ID":"200100852","APOAPSIS":"350.396","RA_OF_ASC_NODE":"86.0781","OBJECT_TYPE":"PAYLOAD","EPHEMERIS_TYPE":"0","RCS_SIZE":"LARGE","MEAN_ELEMENT_THEORY":"SGP4","OBJECT_NAME":"STARLINK-3709","TLE_LINE2":"2 52102  53.2163  86.0781 0001032  62.9154  43.2775 15.73220532  2634","MEAN_MOTION":"15.73220532","CLASSIFICATION_TYPE":"U","ARG_OF_PERICENTER":"62.9154","ECCENTRICITY":"0.00010320","TIME_SYSTEM":"UTC","CENTER_NAME":"EARTH","COUNTRY_CODE":"US","MEAN_ANOMALY":"43.2775"},{"CENTER_NAME":"EARTH","MEAN_MOTION":"15.73178665","CLASSIFICATION_TYPE":"U","ARG_OF_PERICENTER":"74.2031","TIME_SYSTEM":"UTC","ECCENTRICITY":"0.00011040","COUNTRY_CODE":"US","MEAN_ANOMALY":"35.3708","RA_OF_ASC_NODE":"86.0708","APOAPSIS":"350.564","OBJECT_TYPE":"PAYLOAD","MEAN_ELEMENT_THEORY":"SGP4","OBJECT_NAME":"STARLINK-3705","TLE_LINE2":"2 52103  53.2163  86.0708 0001104  74.2031  35.3708 15.73178665  2596","EPHEMERIS_TYPE":"0","RCS_SIZE":"LARGE","NORAD_CAT_ID":"52103","REF_FRAME":"TEME","INCLINATION":"53.2163","MEAN_MOTION_DDOT":"0.0000000000000","EPOCH":"2022-03-30T22:00:00.999936","GP_ID":"200100434","BSTAR":"0.00049000000000","DECAY_DATE":null,"PERIAPSIS":"349.078","FILE":"3380787","MEAN_MOTION_DOT":"0.00068648","SEMIMAJOR_AXIS":"6727.956","OBJECT_ID":"2022-029R","PERIOD":"91.534","LAUNCH_DATE":"2022-03-19","TLE_LINE1":"1 52103U 22029R   22089.91667824  .00068648  00000-0  49000-3 0  9998","SITE":"AFETR","REV_AT_EPOCH":"259","ELEMENT_SET_NO":"999"},{"CENTER_NAME":"EARTH","MEAN_MOTION":"15.89211134","ARG_OF_PERICENTER":"311.1308","CLASSIFICATION_TYPE":"U","TIME_SYSTEM":"UTC","ECCENTRICITY":"0.00077370","COUNTRY_CODE":"US","MEAN_ANOMALY":"137.5867","RA_OF_ASC_NODE":"85.3755","APOAPSIS":"309.666","OBJECT_TYPE":"PAYLOAD","MEAN_ELEMENT_THEORY":"SGP4","OBJECT_NAME":"STARLINK-3693","TLE_LINE2":"2 52104  53.2156  85.3755 0007737 311.1308 137.5867 15.89211134  2598","EPHEMERIS_TYPE":"0","RCS_SIZE":"LARGE","NORAD_CAT_ID":"52104","REF_FRAME":"TEME","INCLINATION":"53.2156","EPOCH":"2022-03-30T22:00:00.999936","MEAN_MOTION_DDOT":"0.0000231100000","GP_ID":"200100644","BSTAR":"0.00063070000000","DECAY_DATE":null,"FILE":"3380787","PERIAPSIS":"299.325","MEAN_MOTION_DOT":"0.00182971","OBJECT_ID":"2022-029S","SEMIMAJOR_AXIS":"6682.630","PERIOD":"90.611","LAUNCH_DATE":"2022-03-19","TLE_LINE1":"1 52104U 22029S   22089.91667824  .00182971  23110-4  63070-3 0  9999","SITE":"AFETR","REV_AT_EPOCH":"259","ELEMENT_SET_NO":"999"},{"GP_ID":"200100222","NORAD_CAT_ID":"52105","MEAN_MOTION_DDOT":"0.0000000000000","EPOCH":"2022-03-30T22:00:00.999936","REF_FRAME":"TEME","INCLINATION":"53.2163","LAUNCH_DATE":"2022-03-19","PERIOD":"91.534","REV_AT_EPOCH":"260","SITE":"AFETR","ELEMENT_SET_NO":"999","TLE_LINE1":"1 52105U 22029T   22089.91667824 -.00003433  00000-0 -20066-4 0  9995","DECAY_DATE":null,"FILE":"3380787","PERIAPSIS":"349.079","BSTAR":"-0.00002006600000","OBJECT_ID":"2022-029T","SEMIMAJOR_AXIS":"6727.922","MEAN_MOTION_DOT":"-0.00003433","COUNTRY_CODE":"US","MEAN_ANOMALY":"51.9001","CENTER_NAME":"EARTH","CLASSIFICATION_TYPE":"U","ARG_OF_PERICENTER":"58.6462","TIME_SYSTEM":"UTC","ECCENTRICITY":"0.00010520","MEAN_MOTION":"15.73190702","OBJECT_NAME":"STARLINK-3706","TLE_LINE2":"2 52105  53.2163  86.0685 0001052  58.6462  51.9001 15.73190702  2606","MEAN_ELEMENT_THEORY":"SGP4","RCS_SIZE":"LARGE","EPHEMERIS_TYPE":"0","APOAPSIS":"350.494","RA_OF_ASC_NODE":"86.0685","OBJECT_TYPE":"PAYLOAD"},{"TLE_LINE1":"1 52106U 22029U   22089.91667824 -.00028947  00000-0 -20219-3 0  9992","ELEMENT_SET_NO":"999","REV_AT_EPOCH":"260","SITE":"AFETR","PERIOD":"91.531","LAUNCH_DATE":"2022-03-19","MEAN_MOTION_DOT":"-0.00028947","SEMIMAJOR_AXIS":"6727.777","OBJECT_ID":"2022-029U","BSTAR":"-0.00020219000000","FILE":"3380787","PERIAPSIS":"349.070","DECAY_DATE":null,"GP_ID":"200100750","INCLINATION":"53.2164","REF_FRAME":"TEME","MEAN_MOTION_DDOT":"0.0000000000000","EPOCH":"2022-03-30T22:00:00.999936","NORAD_CAT_ID":"52106","EPHEMERIS_TYPE":"0","RCS_SIZE":"LARGE","MEAN_ELEMENT_THEORY":"SGP4","TLE_LINE2":"2 52106  53.2164  86.0722 0000850  62.6461  46.3168 15.73241514  2609","OBJECT_NAME":"STARLINK-3670","OBJECT_TYPE":"PAYLOAD","RA_OF_ASC_NODE":"86.0722","APOAPSIS":"350.214","MEAN_ANOMALY":"46.3168","COUNTRY_CODE":"US","MEAN_MOTION":"15.73241514","TIME_SYSTEM":"UTC","ECCENTRICITY":"0.00008500","ARG_OF_PERICENTER":"62.6461","CLASSIFICATION_TYPE":"U","CENTER_NAME":"EARTH"},{"CENTER_NAME":"EARTH","MEAN_MOTION":"15.73217161","ARG_OF_PERICENTER":"67.7123","CLASSIFICATION_TYPE":"U","TIME_SYSTEM":"UTC","ECCENTRICITY":"0.00013400","COUNTRY_CODE":"US","MEAN_ANOMALY":"44.1983","RA_OF_ASC_NODE":"86.0655","APOAPSIS":"350.613","OBJECT_TYPE":"PAYLOAD","MEAN_ELEMENT_THEORY":"SGP4","OBJECT_NAME":"STARLINK-3658","TLE_LINE2":"2 52107  53.2163  86.0655 0001340  67.7123  44.1983 15.73217161  2635","EPHEMERIS_TYPE":"0","RCS_SIZE":"LARGE","NORAD_CAT_ID":"52107","REF_FRAME":"TEME","INCLINATION":"53.2163","EPOCH":"2022-03-30T22:00:00.999936","MEAN_MOTION_DDOT":"0.0000000000000","GP_ID":"200100117","BSTAR":"-0.00029011000000","DECAY_DATE":null,"FILE":"3380787","PERIAPSIS":"348.810","MEAN_MOTION_DOT":"-0.00041166","SEMIMAJOR_AXIS":"6727.846","OBJECT_ID":"2022-029V","PERIOD":"91.532","LAUNCH_DATE":"2022-03-19","TLE_LINE1":"1 52107U 22029V   22089.91667824 -.00041166  00000-0 -29011-3 0  9990","REV_AT_EPOCH":"263","SITE":"AFETR","ELEMENT_SET_NO":"999"},{"CENTER_NAME":"EARTH","MEAN_MOTION":"15.73230377","TIME_SYSTEM":"UTC","ECCENTRICITY":"0.00012710","ARG_OF_PERICENTER":"69.0120","CLASSIFICATION_TYPE":"U","MEAN_ANOMALY":"41.1192","COUNTRY_CODE":"US","OBJECT_TYPE":"PAYLOAD","RA_OF_ASC_NODE":"86.0697","APOAPSIS":"350.529","MEAN_ELEMENT_THEORY":"SGP4","TLE_LINE2":"2 52108  53.2164  86.0697 0001271  69.0120  41.1192 15.73230377  2596","OBJECT_NAME":"STARLINK-3698","EPHEMERIS_TYPE":"0","RCS_SIZE":"LARGE","NORAD_CAT_ID":"52108","INCLINATION":"53.2164","REF_FRAME":"TEME","MEAN_MOTION_DDOT":"0.0000000000000","EPOCH":"2022-03-30T22:00:00.999936","GP_ID":"200100327","BSTAR":"-0.00001805800000","PERIAPSIS":"348.818","FILE":"3380787","DECAY_DATE":null,"MEAN_MOTION_DOT":"-0.00003157","OBJECT_ID":"2022-029W","SEMIMAJOR_AXIS":"6727.809","PERIOD":"91.531","LAUNCH_DATE":"2022-03-19","TLE_LINE1":"1 52108U 22029W   22089.91667824 -.00003157  00000-0 -18058-4 0  9999","ELEMENT_SET_NO":"999","REV_AT_EPOCH":"259","SITE":"AFETR"},{"TLE_LINE2":"2 52109  53.2197  84.2647 0010293 161.7998 314.8155 16.11270788  3138","OBJECT_NAME":"STARLINK-3731","MEAN_ELEMENT_THEORY":"SGP4","RCS_SIZE":"MEDIUM","EPHEMERIS_TYPE":"0","OBJECT_TYPE":"PAYLOAD","APOAPSIS":"250.177","RA_OF_ASC_NODE":"84.2647","MEAN_ANOMALY":"314.8155","COUNTRY_CODE":"US","CENTER_NAME":"EARTH","TIME_SYSTEM":"UTC","ECCENTRICITY":"0.00102930","ARG_OF_PERICENTER":"161.7998","CLASSIFICATION_TYPE":"U","MEAN_MOTION":"16.11270788","LAUNCH_DATE":"2022-03-19","PERIOD":"89.370","ELEMENT_SET_NO":"999","REV_AT_EPOCH":"313","SITE":"AFETR","TLE_LINE1":"1 52109U 22029X   22090.09481000  .04607147  42667-1  56348-2 0  9990","PERIAPSIS":"236.546","FILE":"3380784","DECAY_DATE":null,"BSTAR":"0.00563480000000","SEMIMAJOR_AXIS":"6621.496","OBJECT_ID":"2022-029X","MEAN_MOTION_DOT":"0.04607147","GP_ID":"200075478","NORAD_CAT_ID":"52109","MEAN_MOTION_DDOT":"0.0426670000000","EPOCH":"2022-03-31T02:16:31.584000","INCLINATION":"53.2197","REF_FRAME":"TEME"},{"COUNTRY_CODE":"US","MEAN_ANOMALY":"39.7242","MEAN_MOTION":"15.73185620","CLASSIFICATION_TYPE":"U","ARG_OF_PERICENTER":"71.4775","TIME_SYSTEM":"UTC","ECCENTRICITY":"0.00011740","CENTER_NAME":"EARTH","EPHEMERIS_TYPE":"0","RCS_SIZE":"LARGE","MEAN_ELEMENT_THEORY":"SGP4","OBJECT_NAME":"STARLINK-3687","TLE_LINE2":"2 52110  53.2164  86.0673 0001174  71.4775  39.7242 15.73185620  2597","RA_OF_ASC_NODE":"86.0673","APOAPSIS":"350.591","OBJECT_TYPE":"PAYLOAD","GP_ID":"200100853","REF_FRAME":"TEME","INCLINATION":"53.2164","MEAN_MOTION_DDOT":"0.0000000000000","EPOCH":"2022-03-30T22:00:00.999936","NORAD_CAT_ID":"52110","TLE_LINE1":"1 52110U 22029Y   22089.91667824  .00061402  00000-0  43899-3 0  9997","REV_AT_EPOCH":"259","SITE":"AFETR","ELEMENT_SET_NO":"999","PERIOD":"91.534","LAUNCH_DATE":"2022-03-19","MEAN_MOTION_DOT":"0.00061402","SEMIMAJOR_AXIS":"6727.936","OBJECT_ID":"2022-029Y","BSTAR":"0.00043899000000","DECAY_DATE":null,"PERIAPSIS":"349.011","FILE":"3380787"}];
